[{"OBJECT_NAME":"THEA","OBJECT_ID":"2018-099AQ","EPOCH":"2026-03-09T22:33:02.658240","MEAN_MOTION":15.31454284,"ECCENTRICITY":0.00065849,"INCLINATION":97.4542,"RA_OF_ASC_NODE":137.8815,"ARG_OF_PERICENTER":275.4664,"MEAN_ANOMALY":84.5826,"EPHEMERIS_TYPE":0,"CLASSIFICATION_TYPE":"U","NORAD_CAT_ID":43796,"ELEMENT_SET_NO":999,"REV_AT_EPOCH":39748,"BSTAR":0.00074635274,"MEAN_MOTION_DOT":0.00022649,"MEAN_MOTION_DDOT":0},{"OBJECT_NAME":"STARLINK-35284","OBJECT_ID":"2025-216H","EPOCH":"2026-03-09T21:37:39.465408","MEAN_MOTION":15.30185937,"ECCENTRICITY":0.00017817,"INCLINATION":53.159,"RA_OF_ASC_NODE":332.0768,"ARG_OF_PERICENTER":125.1869,"MEAN_ANOMALY":234.9299,"EPHEMERIS_TYPE":0,"CLASSIFICATION_TYPE":"U","NORAD_CAT_ID":65741,"ELEMENT_SET_NO":999,"REV_AT_EPOCH":2657,"BSTAR":0.0009678623,"MEAN_MOTION_DOT":0.00028404,"MEAN_MOTION_DDOT":0}]
